#dP2021  2 20  0  0  0.00000000      96 __u+U ITR00 EXT  IAC
## 2145 518400.00000000   900.00000000 59265 0.0000000000000
+  116   C06C07C08C09C10C11C12C13C14C16C19C20C21C22C23C24C25
+        C26C27C28C29C30C32C33C34C35C36C37C38C39C40C41C42C43
+        C44C45C46E01E02E03E04E05E07E08E09E11E12E13E14E15E18
+        E19E21E24E25E26E27E30E31E33E36G01G02G03G04G05G06G07
+        G08G09G10G11G13G14G15G16G17G18G19G20G21G22G23G24G25
+        G26G27G28G29G30G31G32J01J02J03R01R02R03R04R05R07R08
+        R09R11R12R13R14R15R16R17R18R19R20R21R22R24  0  0  0
++         9  9 10 10  9  8  9 11  8  8 11 10  9 10 10  8  9
++         7  8  8  9  9  9  8  9 10 10  8 12 11 10  9  8  8
++        10  9 10  8  8  9  8  9  8  8  8 10  8  9  8  8  8
++         8  8  8  7  9  8  9  9  8  9  7  7  8  7  7  7  7
++         7  7  8  9  7  7  9  8  9  8  9  9  8  8  8  8  8
++         7  7  7  8  8  8  8 11  8 10 10  9  7  7  9  7  7
++         8  9  7  9  9  8  9  9  9 10  7  8  8  8  0  0  0
%c M  cc GPS ccc cccc cccc cccc cccc ccccc ccccc ccccc ccccc
%c cc cc ccc ccc cccc cccc cccc cccc ccccc ccccc ccccc ccccc
%f  0.0000000  0.000000000  0.00000000000  0.000000000000000
%f  0.0000000  0.000000000  0.00000000000  0.000000000000000
%i    0    0    0    0      0      0      0      0         0
%i    0    0    0    0      0      0      0      0         0
/* IAC                                ULTRA-RAPID PREDICTION
/* S/V CLOCKS ARE ALIGNED TO GNSS TIME                      
/* G:C1WC2W R:C1PC2P E:C1XC5X C:C2IC6I J:C1CC2S             
/* PCV:IGS14_2134 OL/AL:FES2004  NONE     YN ORB:CoN CLK:CoN
*  2021 02 20  2 30  0.00000000
PC06 -19629.448128  23589.288059  29141.286586    107.375985
PC07 -17386.353920  38272.781788   6053.904353   -343.759917
PC08  -5628.318339  24564.362936 -33590.780118   -911.167528
PC09  -3732.177111  24755.679420  34154.862491    721.118325
PC10  -7619.963127  41207.916867  -6237.902689    -83.613475
PC11   3550.628845 -15129.789627  23241.684028   -912.979649
PC12  21807.971100  -9270.700041  14766.498057    810.439892
PC13   7138.283440  33235.184453 -24657.724235    148.947864
PC14   7945.451128 -25328.613885  -8492.147272    177.579621
PC16 -17460.054974  23657.349489  30237.622585   -702.925477
PC19    -46.234048  22611.012247  16390.990771    734.288415
PC20 -13593.487409  24376.418345    775.102238   -917.659150
PC21  19670.923137 -11546.217703  16083.664768   -846.837714
PC22  13894.913423   7720.734290  22940.196881   -886.322398
PC23 -18822.732541 -17214.845832  11324.303410   -875.930533
PC24   5935.799871 -18648.870804 -19917.946455   -764.359508
PC25 -10311.104708 -25338.613124  -5582.432414   -939.694534
PC26  16908.730299  -2322.371056 -22082.484371    946.011187
PC27 -26917.766443   3695.195665  -6332.235345    486.228939
PC28 -24150.018354  -8353.402140  11222.180527   -107.427500
PC29   7813.268763  15174.646426 -22082.178432    354.791663
PC30 -13870.629302  13893.552618 -19822.834675    446.328337
PC32 -19584.561976  11721.951362 -16044.224420   -897.567274
PC33    -14.287180 -22643.308666 -16293.431573   -958.157607
PC34  13259.143989 -14098.854511  20109.535075   -736.030547
PC35  24280.166067   7707.889192 -11438.774383   -409.771646
PC36   9462.924125  25579.569781   5911.632346   -753.011459
PC37 -17322.899612    972.281009  21871.889382   -866.789764
PC38  -4649.359885  27787.717010 -31303.102132    131.142045
PC39 -15668.537195  24773.630709  30267.703205     28.624385
PC40 -14342.687355  39491.496307  -4404.179188    133.331775
PC41 -13783.817171  -7942.880939 -22878.358244   -929.853147
PC42  14012.535111 -24125.712096    -23.259318   -881.309066
PC43  -7178.333465 -15409.123620  22123.575288   -605.797334
PC44  26884.467260  -4476.289844   6084.737735     47.661017
PC45  18821.015597  17121.335465 -11434.956896    366.842942
PC46  -5154.483583  19187.249375  19580.411903    397.279871
PE01  10992.859010 -21030.988852 -17703.401270  -1049.825213
PE02 -10937.269339  21099.607547  17626.406253    199.684059
PE03 -21803.517351  19091.714358   6051.005125   -400.588159
PE04   4928.710567 -20571.244869 -20701.957434   -713.439537
PE05 -26124.459596   6377.384646 -12369.253461   -303.128703
PE07  15166.709962   9935.310710  23400.076152   -503.124196
PE08  -4575.719645  20418.472877  20940.071707   6044.379596
PE09 -15291.602163  -9604.451879 -23453.852718   5759.599977
PE11 -23316.659823 -16854.702514   6916.169255   6298.401536
PE12  -5728.261375 -19010.851451  21953.832354   5347.414835
PE13  23169.295149  16914.711977  -7305.884678    412.372948
PE14 -25147.983646    122.252034   8867.927075  -1335.994425
PE15   5904.529589  18937.625634 -21958.747632    828.439516
PE18  20872.973599  10491.258774 -19299.010406  -1460.536778
PE19  23094.235856 -18097.474988  -3931.264099    208.186528
PE21  16499.801935   -945.038862 -24561.823750   -649.434161
PE24 -12272.460154 -21017.873724  16851.702934   -752.964309
PE25 -16509.249498    708.463446  24559.826841   -526.806720
PE26  26604.858965   4462.528529  12197.126662   2128.023558
PE27  12643.894821  20357.923626 -17364.922589     26.192771
PE30    722.296345  29570.319415    753.064444   3167.094666
PE31  -1383.777915 -29573.152739     10.124382   -478.453849
PE33  14828.194505  -9811.490265  23679.379470   -465.847944
PE36 -26770.676821  -4964.491032 -11591.083341    438.281231
PG01  22107.898643  14096.337168   5024.978448    757.601200
PG02  -8794.405143 -19823.732089  15974.466039   -578.652324
PG03  13511.235028   8123.265764  21311.319131    -87.697572
PG04  21384.774702   4016.236268  15272.587586   -181.415397
PG05  -4846.519538 -23626.808295 -11067.455295    -34.173040
PG06   4409.407446 -14974.126145  21545.887866     -2.271915
PG07  20672.366788   1942.554286 -16498.784145     64.796528
PG08  15866.713488   8290.022549 -19710.778635    -10.947610
PG09  25329.201476  -6078.893459   5185.599869   -324.502172
PG10 -11648.961060  20433.131433 -11963.681636    -65.230611
PG11  22691.036740  11060.087379  -8104.901000    -19.753362
PG13  -5218.470187 -14267.119554 -21927.461371     99.207610
PG14  13359.730363 -18910.500475 -13016.548914     97.906770
PG15 -17242.027791  -7358.639861 -19294.338851   -168.227892
PG16    671.263242  24445.348823  -9996.238271   -282.735098
PG17  19471.353814 -14163.772547  11633.993729    397.163784
PG18 -18677.018538   1144.013734 -18876.375955    348.042319
PG19  13207.548288 -15197.575938  16990.637423    -36.197497
PG20 -14803.916162   9522.724735 -19868.312418    524.611623
PG21  20937.442298  16499.257870  -1995.321079     97.038586
PG22  11582.849446  16925.312950  17164.059332   -675.815493
PG23 -14960.552003  10609.604440 -19218.523199    118.405196
PG24 -21591.775995 -15831.937351   -501.551460      2.111431
PG25 -15396.983653   2669.364470  21181.889678     83.998210
PG26  -4174.905282  26046.233920   1340.156158     47.417499
PG27   2536.066421  14900.035555 -21970.446757    -79.711813
PG28  12431.529350 -21189.166217  -9770.199444    613.058582
PG29 -25738.732291   4007.266376   5256.683141   -298.178784
PG30  12743.524952  -9587.996642 -21212.424566   -387.377119
PG31  -2591.271406  16696.657323  20298.716862   -101.134651
PG32 -17720.896322  15774.586981  11862.964937     19.307421
PJ01 -27191.498018  32145.651009   1462.749762   -342.213010
PJ02 -26531.863247  24367.639567  26794.958801      2.141851
PJ03 -32962.262486  17251.632352 -15227.412260     -0.893731
PR01  16093.264926 -19769.037589   -728.414344     75.267705
PR02   2746.303650 -16706.020859 -19063.055015    467.734776
PR03 -11122.336193  -3609.817460 -22621.689861     31.087929
PR04 -18392.831126  11475.859378 -13408.865075     74.696153
PR05 -15485.341653  19979.118096   3339.536637     66.801016
PR07  11614.793272   2998.800975  22553.692304    -42.473567
PR08  18473.670505 -11422.090518  13447.707141    -57.496215
PR09   7639.320662  24300.454662   1914.095435    -20.876286
PR11  11118.138782  -1050.189898 -22927.208904      3.040743
PR12   2573.769602 -18222.921378 -17655.660968    206.443545
PR13  -7456.539554 -24274.111886  -2471.006513    -50.953562
PR14 -13162.017436 -16017.677008  14861.689192     61.191126
PR15 -11125.367292   1341.191876  22929.101586    105.310406
PR16  -1812.922947  18830.501490  17012.037198    -11.539740
PR17 -22467.553259  -8500.910331   8640.991520    401.576244
PR18 -24047.093787  -1118.353695  -8327.684303     67.241959
PR19 -13744.946344   6209.289356 -20565.011240   -132.722950
PR20   7348.303839  11528.047772 -21533.640919   -433.742713
PR21  22964.924190   8130.631742  -7521.834951   -188.959849
PR22  23753.436496    714.507030   9397.392618    -98.783237
PR24  -8105.049031 -11888.893813  21086.098287     32.212971
EOF
